HIMAWARI-8              
1 40267U 14060A   24297.73012876 -.00000284  00000+0  00000+0 0  9991
2 40267   0.0098 200.1442 0001205  42.9137 193.0949  1.00272122 36725
